SIID20 WIIX 020900

AAXX 02094

96009 32459 60105 10278 20241 30040 40074 57026 83221

  333 56000 57803 83816 80860=

96011 32560 71808 10268 20234 30052 40076 57021 85521

  333 56000 84620=

96035 32460 73509 10290 20245 30053 40063 57027 84276

  333 56000 57804 81817 83618 84360 80840=

96073 32560 71906 10318 20233 30053 40067 57020 83222

  333 56000 57802 83820 80860=

96091 32460 60404 10304 20254 30054 40078 55013 82232

  333 56000 57801 82817 84360 80860=

96109 32459 70707 10314 20247 30010 40047 57026 85572

  333 56000 85613=

96145 32457 70000 10300 20246 30066 40069 58014 84271

  333 56100 57814 84817 83460 80857=

96147 21457 62604 10263 20256 30068 40073 55018 71696 83521

  333 56000 69987 83616=

96163 32560 62805 10310 20244 30064 40071 56019 81111

  333 56000 81820 83462=

96179 32457 50903 10304 20254 30032 40067 55016 82228

  333 56000 57802 82817 85280 80857=

96195 32460 50000 10331 20249 30026 40056 56028 84221

  333 56000 57802 84816 80858=

96221 32460 70606 10325 20243 30044 40058 56023 84171

  333 56999 84810=

96237 21456 80000 10248 20243 30029 40068 56015 72996 84528

  333 56000 60057 84615 84460=

96249 32458 70304 10292 20243 30010 40073 57015 84932

  333 56100 57911 57811 81917 83820 80981 80863=

96253 32460 42207 10319 20239 30044 40062 56015 83932

  333 56000 57900 57800 81915 81820=

96295 32460 51607 10329 20224 39962 40064 56017 81221

  333 56000 57802 81816 83460 80850=

96509 32460 71002 10284 20249 30072 40081 56005 82171

  333 56000 84815 85460=

96581 21459 70703 10246 20234 30073 40080 58002 79196 82171

  333 56000 60047 82812 87462=

96633 32560 51303 10301 20253 30064 40068 55007 81571

  333 56000 81620 84080=

96645 21459 70000 10263 20261 30039 40072 58007 70296 83372

  333 56000 57901 57801 60607 81911 83812 80980 80880=

96655 32460 61908 10309 20248 30047 40059 55013 85511

  333 56000 85611=

96685 32560 51703 10296 20244 30043 40064 57008 83811

  333 56000 83820=

96749 32560 50304 10301 20230 30056 40070 56011 82411

  333 56000 82621 84460=

96781 21457 61204 10234 20216 39269 40128 52003 72996 83271

  333 56000 57802 60027 83818 80858=

96805 32558 61404 10290 20249 30073 40080 57016 83871

  333 56000 57802 83820 85460 80860=

96839 31457 70112 10300 20246 30063 40067 55007 71422 84972

  333 56000 57901 57802 81913 83814 85361 80980 80862=

96935 32560 60705 10318 20250 30067 40074 55008 82271

  333 56000 57802 82820 80863=
